{"type": "FeatureCollection", "features": [ {"type": "Feature", "properties": {"norad_id": 33153, "name": "INTELSAT 25 (IS-25)", "group": "intelsat", "lat": -1.0942300080821794, "lon": -68.59938924725591, "alt_km": 35767.83553934772, "timestamp": "2025-12-15T15:53:19.546006+00:00", "meta": {"OBJECT_NAME": "INTELSAT 25 (IS-25)", "OBJECT_ID": "2008-034A", "EPOCH": "2025-12-14T21:49:42.872736", "MEAN_MOTION": 1.00271515, "ECCENTRICITY": 0.00049056, "INCLINATION": 2.2332, "RA_OF_ASC_NODE": 82.6266, "ARG_OF_PERICENTER": 181.9109, "MEAN_ANOMALY": 115.2196, "EPHEMERIS_TYPE": 0, "CLASSIFICATION_TYPE": "U", "NORAD_CAT_ID": 33153, "ELEMENT_SET_NO": 999, "REV_AT_EPOCH": 6384, "BSTAR": 0, "MEAN_MOTION_DOT": -2.05e-06, "MEAN_MOTION_DDOT": 0}, "tle": {"line1": "1 33153U 08034A   25348.90952399 -.00000205  00000+0  00000+0 0  9994", "line2": "2 33153   2.2332  82.6266 0004905 181.9109 115.2196  1.00271515 63844"}}, "geometry": {"type": "Point", "coordinates": [-68.59938924725591, -1.0942300080821794]}}, {"type": "Feature", "properties": {"norad_id": 33376, "name": "GALAXY 19 (G-19)", "group": "intelsat", "lat": -0.03674968226958033, "lon": -134.13047590605058, "alt_km": 35777.77535357364, "timestamp": "2025-12-15T15:53:19.546018+00:00", "meta": {"OBJECT_NAME": "GALAXY 19 (G-19)", "OBJECT_ID": "2008-045A", "EPOCH": "2025-12-14T21:31:07.154112", "MEAN_MOTION": 1.00271416, "ECCENTRICITY": 0.00026026, "INCLINATION": 0.029, "RA_OF_ASC_NODE": 275.3259, "ARG_OF_PERICENTER": 350.6365, "MEAN_ANOMALY": 43.6325, "EPHEMERIS_TYPE": 0, "CLASSIFICATION_TYPE": "U", "NORAD_CAT_ID": 33376, "ELEMENT_SET_NO": 999, "REV_AT_EPOCH": 6305, "BSTAR": 0, "MEAN_MOTION_DOT": -1.19e-06, "MEAN_MOTION_DDOT": 0}, "tle": {"line1": "1 33376U 08045A   25348.89661058 -.00000119  00000+0  00000+0 0  9994", "line2": "2 33376   0.0290 275.3259 0002602 350.6365  43.6325  1.00271416 63055"}}, "geometry": {"type": "Point", "coordinates": [-134.13047590605058, -0.03674968226958033]}}, {"type": "Feature", "properties": {"norad_id": 35493, "name": "FM-5", "group": "intelsat", "lat": -0.03172466661611176, "lon": -123.22460050380754, "alt_km": 35783.0308133294, "timestamp": "2025-12-15T15:53:19.546029+00:00", "meta": {"OBJECT_NAME": "FM-5", "OBJECT_ID": "2009-034A", "EPOCH": "2025-12-14T09:19:38.921088", "MEAN_MOTION": 1.0027708, "ECCENTRICITY": 7.415e-05, "INCLINATION": 0.0211, "RA_OF_ASC_NODE": 287.5173, "ARG_OF_PERICENTER": 251.221, "MEAN_ANOMALY": 318.3428, "EPHEMERIS_TYPE": 0, "CLASSIFICATION_TYPE": "U", "NORAD_CAT_ID": 35493, "ELEMENT_SET_NO": 999, "REV_AT_EPOCH": 4479, "BSTAR": 0, "MEAN_MOTION_DOT": -1.83e-06, "MEAN_MOTION_DDOT": 0}, "tle": {"line1": "1 35493U 09034A   25348.38864492 -.00000183  00000+0  00000+0 0  9997", "line2": "2 35493   0.0211 287.5173 0000741 251.2210 318.3428  1.00277080 44796"}}, "geometry": {"type": "Point", "coordinates": [-123.22460050380754, -0.03172466661611176]}}, {"type": "Feature", "properties": {"norad_id": 36097, "name": "INTELSAT 14 (IS-14)", "group": "intelsat", "lat": -0.030086368416056032, "lon": -82.10816060676203, "alt_km": 35776.01381662689, "timestamp": "2025-12-15T15:53:19.546040+00:00", "meta": {"OBJECT_NAME": "INTELSAT 14 (IS-14)", "OBJECT_ID": "2009-064A", "EPOCH": "2025-12-14T21:45:50.743584", "MEAN_MOTION": 1.0027164, "ECCENTRICITY": 0.00024214, "INCLINATION": 0.0216, "RA_OF_ASC_NODE": 46.6634, "ARG_OF_PERICENTER": 225.3444, "MEAN_ANOMALY": 93.2785, "EPHEMERIS_TYPE": 0, "CLASSIFICATION_TYPE": "U", "NORAD_CAT_ID": 36097, "ELEMENT_SET_NO": 999, "REV_AT_EPOCH": 5875, "BSTAR": 0, "MEAN_MOTION_DOT": -2.54e-06, "MEAN_MOTION_DDOT": 0}, "tle": {"line1": "1 36097U 09064A   25348.90683731 -.00000254  00000+0  00000+0 0  9993", "line2": "2 36097   0.0216  46.6634 0002421 225.3444  93.2785  1.00271640 58758"}}, "geometry": {"type": "Point", "coordinates": [-82.10816060676203, -0.030086368416056032]}}, {"type": "Feature", "properties": {"norad_id": 36106, "name": "INTELSAT 15 (IS-15)", "group": "intelsat", "lat": 0.032553684510465405, "lon": 48.05750375243291, "alt_km": 35792.69650934611, "timestamp": "2025-12-15T15:53:19.546050+00:00", "meta": {"OBJECT_NAME": "INTELSAT 15 (IS-15)", "OBJECT_ID": "2009-067A", "EPOCH": "2025-12-14T22:18:38.668608", "MEAN_MOTION": 1.00272078, "ECCENTRICITY": 0.00022227, "INCLINATION": 0.0136, "RA_OF_ASC_NODE": 306.2062, "ARG_OF_PERICENTER": 326.9048, "MEAN_ANOMALY": 230.5467, "EPHEMERIS_TYPE": 0, "CLASSIFICATION_TYPE": "U", "NORAD_CAT_ID": 36106, "ELEMENT_SET_NO": 999, "REV_AT_EPOCH": 3938, "BSTAR": 0, "MEAN_MOTION_DOT": -1.65e-06, "MEAN_MOTION_DDOT": 0}, "tle": {"line1": "1 36106U 09067A   25348.92961422 -.00000165  00000+0  00000+0 0  9996", "line2": "2 36106   0.0136 306.2062 0002222 326.9048 230.5467  1.00272078 39384"}}, "geometry": {"type": "Point", "coordinates": [48.05750375243291, 0.032553684510465405]}}, {"type": "Feature", "properties": {"norad_id": 36131, "name": "DIRECTV 12", "group": "intelsat", "lat": 0.020981368837920986, "lon": -139.82729812057934, "alt_km": 35787.94795563997, "timestamp": "2025-12-15T15:53:19.546062+00:00", "meta": {"OBJECT_NAME": "DIRECTV 12", "OBJECT_ID": "2009-075A", "EPOCH": "2025-12-14T21:29:22.322400", "MEAN_MOTION": 1.00273793, "ECCENTRICITY": 6.08e-05, "INCLINATION": 0.0486, "RA_OF_ASC_NODE": 142.2752, "ARG_OF_PERICENTER": 238.8149, "MEAN_ANOMALY": 282.3462, "EPHEMERIS_TYPE": 0, "CLASSIFICATION_TYPE": "U", "NORAD_CAT_ID": 36131, "ELEMENT_SET_NO": 999, "REV_AT_EPOCH": 4470, "BSTAR": 0, "MEAN_MOTION_DOT": -8.4e-07, "MEAN_MOTION_DDOT": 0}, "tle": {"line1": "1 36131U 09075A   25348.89539725 -.00000084  00000+0  00000+0 0  9996", "line2": "2 36131   0.0486 142.2752 0000608 238.8149 282.3462  1.00273793 44700"}}, "geometry": {"type": "Point", "coordinates": [-139.82729812057934, 0.020981368837920986]}}, {"type": "Feature", "properties": {"norad_id": 36397, "name": "INTELSAT 16 (IS-16)", "group": "intelsat", "lat": -0.03256245018254328, "lon": -113.31815222694216, "alt_km": 35778.402928854426, "timestamp": "2025-12-15T15:53:19.546073+00:00", "meta": {"OBJECT_NAME": "INTELSAT 16 (IS-16)", "OBJECT_ID": "2010-006A", "EPOCH": "2025-12-14T21:36:59.093280", "MEAN_MOTION": 1.00271831, "ECCENTRICITY": 0.00019477, "INCLINATION": 0.0121, "RA_OF_ASC_NODE": 318.5214, "ARG_OF_PERICENTER": 308.4101, "MEAN_ANOMALY": 64.9337, "EPHEMERIS_TYPE": 0, "CLASSIFICATION_TYPE": "U", "NORAD_CAT_ID": 36397, "ELEMENT_SET_NO": 999, "REV_AT_EPOCH": 5780, "BSTAR": 0, "MEAN_MOTION_DOT": -2.25e-06, "MEAN_MOTION_DDOT": 0}, "tle": {"line1": "1 36397U 10006A   25348.90068395 -.00000225  00000+0  00000+0 0  9995", "line2": "2 36397   0.0121 318.5214 0001947 308.4101  64.9337  1.00271831 57801"}}, "geometry": {"type": "Point", "coordinates": [-113.31815222694216, -0.03256245018254328]}}, {"type": "Feature", "properties": {"norad_id": 37185, "name": "XM-5", "group": "intelsat", "lat": -0.07101839139429193, "lon": -152.2863242497424, "alt_km": 35782.02331940257, "timestamp": "2025-12-15T15:53:19.546084+00:00", "meta": {"OBJECT_NAME": "XM-5", "OBJECT_ID": "2010-053A", "EPOCH": "2025-12-14T21:25:52.657248", "MEAN_MOTION": 1.00271433, "ECCENTRICITY": 0.00019252, "INCLINATION": 0.0637, "RA_OF_ASC_NODE": 272.2898, "ARG_OF_PERICENTER": 236.3619, "MEAN_ANOMALY": 141.435, "EPHEMERIS_TYPE": 0, "CLASSIFICATION_TYPE": "U", "NORAD_CAT_ID": 37185, "ELEMENT_SET_NO": 999, "REV_AT_EPOCH": 5563, "BSTAR": 0, "MEAN_MOTION_DOT": -3e-08, "MEAN_MOTION_DDOT": 0}, "tle": {"line1": "1 37185U 10053A   25348.89297057 -.00000003  00000+0  00000+0 0  9994", "line2": "2 37185   0.0637 272.2898 0001925 236.3619 141.4350  1.00271433 55635"}}, "geometry": {"type": "Point", "coordinates": [-152.2863242497424, -0.07101839139429193]}}, {"type": "Feature", "properties": {"norad_id": 37238, "name": "INTELSAT 17 (IS-17)", "group": "intelsat", "lat": 0.0015749765519708452, "lon": 28.89118946674705, "alt_km": 35788.84059773817, "timestamp": "2025-12-15T15:53:19.546094+00:00", "meta": {"OBJECT_NAME": "INTELSAT 17 (IS-17)", "OBJECT_ID": "2010-065B", "EPOCH": "2025-12-14T18:52:07.381920", "MEAN_MOTION": 1.00272078, "ECCENTRICITY": 0.00026647, "INCLINATION": 0.0268, "RA_OF_ASC_NODE": 63.5665, "ARG_OF_PERICENTER": 220.6858, "MEAN_ANOMALY": 148.4551, "EPHEMERIS_TYPE": 0, "CLASSIFICATION_TYPE": "U", "NORAD_CAT_ID": 37238, "ELEMENT_SET_NO": 999, "REV_AT_EPOCH": 5139, "BSTAR": 0, "MEAN_MOTION_DOT": 0, "MEAN_MOTION_DDOT": 0}, "tle": {"line1": "1 37238U 10065B   25348.78619655  .00000000  00000+0  00000+0 0  9992", "line2": "2 37238   0.0268  63.5665 0002664 220.6858 148.4551  1.00272078 51394"}}, "geometry": {"type": "Point", "coordinates": [28.89118946674705, 0.0015749765519708452]}}, {"type": "Feature", "properties": {"norad_id": 37392, "name": "INTELSAT 28 (IS-28)", "group": "intelsat", "lat": -0.6053010917432862, "lon": -68.77785617597107, "alt_km": 35771.51789376765, "timestamp": "2025-12-15T15:53:19.546105+00:00", "meta": {"OBJECT_NAME": "INTELSAT 28 (IS-28)", "OBJECT_ID": "2011-016A", "EPOCH": "2025-12-14T21:49:42.872736", "MEAN_MOTION": 1.00272805, "ECCENTRICITY": 0.00036956, "INCLINATION": 1.3301, "RA_OF_ASC_NODE": 85.0315, "ARG_OF_PERICENTER": 183.4005, "MEAN_ANOMALY": 111.1414, "EPHEMERIS_TYPE": 0, "CLASSIFICATION_TYPE": "U", "NORAD_CAT_ID": 37392, "ELEMENT_SET_NO": 999, "REV_AT_EPOCH": 5143, "BSTAR": 0, "MEAN_MOTION_DOT": -2.05e-06, "MEAN_MOTION_DDOT": 0}, "tle": {"line1": "1 37392U 11016A   25348.90952399 -.00000205  00000+0  00000+0 0  9997", "line2": "2 37392   1.3301  85.0315 0003695 183.4005 111.1414  1.00272805 51431"}}, "geometry": {"type": "Point", "coordinates": [-68.77785617597107, -0.6053010917432862]}}]}